*******************************************************************************
JPL/HORIZONS              2372 Proskurin (1977 RA8)        2023-Sep-04 11:17:33
Rec #:    2372 (+COV) Soln.date: 2023-Aug-22_20:25:12   # obs: 3912 (1906-2023)
 
IAU76/J2000 helio. ecliptic osc. elements (au, days, deg., period=Julian yrs):
 
  EPOCH=  2457896.5 ! 2017-May-23.00 (TDB)         Residual RMS= .24335
   EC= .1770699336791317   QR= 2.561896354691763   TP= 2457581.5807778449
   OM= 98.21380803246301   W=  317.4281017179773   IN= 2.743459055556296
   A= 3.113139815325273    MA= 56.5073973998505    ADIST= 3.664383275958784
   PER= 5.49296            N= .179434577           ANGMOM= .029871935
   DAN= 2.66767            DDN= 3.46772            L= 55.6746436
   B= -1.855606            MOID= 1.57252002        TP= 2016-Jul-12.0807778449
 
Asteroid physical parameters (km, seconds, rotational period in hours):
   GM= n.a.                RAD= 11.1225            ROTPER= 18.184
   H= 11.96                G= .150                 B-V= n.a.
                           ALBEDO= .068            STYP= n.a.

ASTEROID comments: 
1: soln ref.= JPL#51, OCC=0
2: source=ORB
*******************************************************************************


*******************************************************************************
Ephemeris / API_USER Mon Sep  4 11:17:33 2023 Pasadena, USA      / Horizons
*******************************************************************************
Target body name: 2372 Proskurin (1977 RA8)       {source: JPL#51}
Center body name: Solar System Barycenter (0)     {source: DE441}
Center-site name: BODY CENTER
*******************************************************************************
Start time      : A.D. 2023-Aug-12 00:00:00.0000 TDB
Stop  time      : A.D. 2023-Aug-13 00:00:00.0000 TDB
Step-size       : 2880 minutes
*******************************************************************************
Center geodetic : 0.0, 0.0, 0.0                   {E-lon(deg),Lat(deg),Alt(km)}
Center cylindric: 0.0, 0.0, 0.0                   {E-lon(deg),Dxy(km),Dz(km)}
Center radii    : (undefined)
Small perturbers: Yes                             {source: SB441-N16}
Output units    : KM-S
Calendar mode   : Mixed Julian/Gregorian
Output type     : GEOMETRIC cartesian states
Output format   : 2 (position and velocity)
Reference frame : Ecliptic of J2000.0
*******************************************************************************
Initial IAU76/J2000 heliocentric ecliptic osculating elements (au, days, deg.):
  EPOCH=  2457896.5 ! 2017-May-23.00 (TDB)         Residual RMS= .24335        
   EC= .1770699336791317   QR= 2.561896354691763   TP= 2457581.5807778449      
   OM= 98.21380803246301   W=  317.4281017179773   IN= 2.743459055556296       
  Equivalent ICRF heliocentric cartesian coordinates (au, au/d):
   X=-1.894274760432056E+00  Y= 1.967639682498959E+00  Z= 9.347520071665526E-01
  VX=-8.906911803256616E-03 VY=-5.242752235621482E-03 VZ=-1.771435611564132E-03
Asteroid physical parameters (km, seconds, rotational period in hours):        
   GM= n.a.                RAD= 11.1225            ROTPER= 18.184              
   H= 11.96                G= .150                 B-V= n.a.                   
                           ALBEDO= .068            STYP= n.a.                  
*******************************************************************************
JDTDB
   X     Y     Z
   VX    VY    VZ
*******************************************************************************
$$SOE
2460168.500000000 = A.D. 2023-Aug-12 00:00:00.0000 TDB 
 X =-4.932196650057636E+08 Y = 3.113696419657992E+07 Z = 2.315365453763890E+07
 VX=-3.535765371913763E+00 VY=-1.553308465883908E+01 VZ= 2.728301071185770E-01
$$EOE
*******************************************************************************
 
TIME

  Barycentric Dynamical Time ("TDB" or T_eph) output was requested. This
continuous coordinate time is equivalent to the relativistic proper time
of a clock at rest in a reference frame co-moving with the solar system
barycenter but outside the system's gravity well. It is the independent
variable in the solar system relativistic equations of motion.

  TDB runs at a uniform rate of one SI second per second and is independent
of irregularities in Earth's rotation.
 
CALENDAR SYSTEM

  Mixed calendar mode was active such that calendar dates after AD 1582-Oct-15
(if any) are in the modern Gregorian system. Dates prior to 1582-Oct-5 (if any)
are in the Julian calendar system, which is automatically extended for dates
prior to its adoption on 45-Jan-1 BC.  The Julian calendar is useful for
matching historical dates. The Gregorian calendar more accurately corresponds
to the Earth's orbital motion and seasons. A "Gregorian-only" calendar mode is
available if such physical events are the primary interest.

REFERENCE FRAME AND COORDINATES

  Ecliptic at the standard reference epoch

    Reference epoch: J2000.0
    X-Y plane: adopted Earth orbital plane at the reference epoch
               Note: IAU76 obliquity of 84381.448 arcseconds wrt ICRF X-Y plane
    X-axis   : ICRF
    Z-axis   : perpendicular to the X-Y plane in the directional (+ or -) sense
               of Earth's north pole at the reference epoch.

  Symbol meaning:

    JDTDB    Julian Day Number, Barycentric Dynamical Time
      X      X-component of position vector (km)
      Y      Y-component of position vector (km)
      Z      Z-component of position vector (km)
      VX     X-component of velocity vector (km/sec)                           
      VY     Y-component of velocity vector (km/sec)                           
      VZ     Z-component of velocity vector (km/sec)                           

ABERRATIONS AND CORRECTIONS

 Geometric state vectors have NO corrections or aberrations applied.

Computations by ...

    Solar System Dynamics Group, Horizons On-Line Ephemeris System
    4800 Oak Grove Drive, Jet Propulsion Laboratory
    Pasadena, CA  91109   USA

    General site: https://ssd.jpl.nasa.gov/
    Mailing list: https://ssd.jpl.nasa.gov/email_list.html
    System news : https://ssd.jpl.nasa.gov/horizons/news.html
    User Guide  : https://ssd.jpl.nasa.gov/horizons/manual.html
    Connect     : browser        https://ssd.jpl.nasa.gov/horizons/app.html#/x
                  API            https://ssd-api.jpl.nasa.gov/doc/horizons.html
                  command-line   telnet ssd.jpl.nasa.gov 6775
                  e-mail/batch   https://ssd.jpl.nasa.gov/ftp/ssd/hrzn_batch.txt
                  scripts        https://ssd.jpl.nasa.gov/ftp/ssd/SCRIPTS
    Author      : Jon.D.Giorgini@jpl.nasa.gov
*******************************************************************************
